{"type": "FeatureCollection", "features": [ {"type": "Feature", "properties": {"norad_id": 66656, "name": "2025-274G", "group": "last-30-days", "lat": -25.931808281069532, "lon": -67.90098018123044, "alt_km": 602.2053008290804, "timestamp": "2025-12-27T08:36:17.076527+00:00", "meta": {"OBJECT_NAME": "2025-274G", "OBJECT_ID": "2025-274G", "EPOCH": "2025-12-26T18:14:21.774336", "MEAN_MOTION": 14.92357214, "ECCENTRICITY": 0.00130293, "INCLINATION": 97.7403, "RA_OF_ASC_NODE": 287.7186, "ARG_OF_PERICENTER": 205.1817, "MEAN_ANOMALY": 154.8769, "EPHEMERIS_TYPE": 0, "CLASSIFICATION_TYPE": "U", "NORAD_CAT_ID": 66656, "ELEMENT_SET_NO": 999, "REV_AT_EPOCH": 449, "BSTAR": 0.00034998083, "MEAN_MOTION_DOT": 3.529e-05, "MEAN_MOTION_DDOT": 0}, "tle": {"line1": "1 66656U 25274G   25360.75997424  .00003529  00000+0  34998-3 0  9996", "line2": "2 66656  97.7403 287.7186 0013029 205.1817 154.8769 14.92357214  4494"}}, "geometry": {"type": "Point", "coordinates": [-67.90098018123044, -25.931808281069532]}}, {"type": "Feature", "properties": {"norad_id": 66657, "name": "SPIRONE", "group": "last-30-days", "lat": -6.427008915176337, "lon": -70.80767373197985, "alt_km": 599.1030472115135, "timestamp": "2025-12-27T08:36:17.076538+00:00", "meta": {"OBJECT_NAME": "SPIRONE", "OBJECT_ID": "2025-274H", "EPOCH": "2025-12-26T18:09:10.152000", "MEAN_MOTION": 14.92536223, "ECCENTRICITY": 0.00109736, "INCLINATION": 97.7399, "RA_OF_ASC_NODE": 287.7226, "ARG_OF_PERICENTER": 222.2811, "MEAN_ANOMALY": 137.7564, "EPHEMERIS_TYPE": 0, "CLASSIFICATION_TYPE": "U", "NORAD_CAT_ID": 66657, "ELEMENT_SET_NO": 999, "REV_AT_EPOCH": 449, "BSTAR": 0.00037802358, "MEAN_MOTION_DOT": 3.832e-05, "MEAN_MOTION_DDOT": 0}, "tle": {"line1": "1 66657U 25274H   25360.75636750  .00003832  00000+0  37802-3 0  9993", "line2": "2 66657  97.7399 287.7226 0010973 222.2811 137.7564 14.92536223  4495"}}, "geometry": {"type": "Point", "coordinates": [-70.80767373197985, -6.427008915176337]}}, {"type": "Feature", "properties": {"norad_id": 66658, "name": "2025-274J", "group": "last-30-days", "lat": 12.523608195723057, "lon": -73.40833711209687, "alt_km": 597.5704903374872, "timestamp": "2025-12-27T08:36:17.076549+00:00", "meta": {"OBJECT_NAME": "2025-274J", "OBJECT_ID": "2025-274J", "EPOCH": "2025-12-26T18:04:08.481216", "MEAN_MOTION": 14.92721317, "ECCENTRICITY": 0.00114642, "INCLINATION": 97.74, "RA_OF_ASC_NODE": 287.7274, "ARG_OF_PERICENTER": 225.5118, "MEAN_ANOMALY": 134.5165, "EPHEMERIS_TYPE": 0, "CLASSIFICATION_TYPE": "U", "NORAD_CAT_ID": 66658, "ELEMENT_SET_NO": 999, "REV_AT_EPOCH": 449, "BSTAR": 0.00054422256, "MEAN_MOTION_DOT": 5.569e-05, "MEAN_MOTION_DDOT": 0}, "tle": {"line1": "1 66658U 25274J   25360.75287594  .00005569  00000+0  54422-3 0  9998", "line2": "2 66658  97.7400 287.7274 0011464 225.5118 134.5165 14.92721317  4496"}}, "geometry": {"type": "Point", "coordinates": [-73.40833711209687, 12.523608195723057]}}, {"type": "Feature", "properties": {"norad_id": 66659, "name": "JACK K", "group": "last-30-days", "lat": 32.50474302092164, "lon": -76.63963995870482, "alt_km": 595.3625818149385, "timestamp": "2025-12-27T08:36:17.076560+00:00", "meta": {"OBJECT_NAME": "JACK K", "OBJECT_ID": "2025-274K", "EPOCH": "2025-12-26T17:58:48.840096", "MEAN_MOTION": 14.92886476, "ECCENTRICITY": 0.00122459, "INCLINATION": 97.7403, "RA_OF_ASC_NODE": 287.7329, "ARG_OF_PERICENTER": 227.6944, "MEAN_ANOMALY": 132.3238, "EPHEMERIS_TYPE": 0, "CLASSIFICATION_TYPE": "U", "NORAD_CAT_ID": 66659, "ELEMENT_SET_NO": 999, "REV_AT_EPOCH": 449, "BSTAR": 0.00034058623, "MEAN_MOTION_DOT": 3.478e-05, "MEAN_MOTION_DDOT": 0}, "tle": {"line1": "1 66659U 25274K   25360.74917639  .00003478  00000+0  34059-3 0  9999", "line2": "2 66659  97.7403 287.7329 0012245 227.6944 132.3238 14.92886476  4494"}}, "geometry": {"type": "Point", "coordinates": [-76.63963995870482, 32.50474302092164]}}, {"type": "Feature", "properties": {"norad_id": 66660, "name": "K-HERO", "group": "last-30-days", "lat": 48.79168973300642, "lon": -80.59476483105418, "alt_km": 593.0444094855384, "timestamp": "2025-12-27T08:36:17.076570+00:00", "meta": {"OBJECT_NAME": "K-HERO", "OBJECT_ID": "2025-274L", "EPOCH": "2025-12-26T17:54:27.478368", "MEAN_MOTION": 14.93036689, "ECCENTRICITY": 0.00128683, "INCLINATION": 97.7404, "RA_OF_ASC_NODE": 287.7384, "ARG_OF_PERICENTER": 228.4819, "MEAN_ANOMALY": 131.5297, "EPHEMERIS_TYPE": 0, "CLASSIFICATION_TYPE": "U", "NORAD_CAT_ID": 66660, "ELEMENT_SET_NO": 999, "REV_AT_EPOCH": 449, "BSTAR": 0.00032159571, "MEAN_MOTION_DOT": 3.294e-05, "MEAN_MOTION_DDOT": 0}, "tle": {"line1": "1 66660U 25274L   25360.74615137  .00003294  00000+0  32160-3 0  9996", "line2": "2 66660  97.7404 287.7384 0012868 228.4819 131.5297 14.93036689  4499"}}, "geometry": {"type": "Point", "coordinates": [-80.59476483105418, 48.79168973300642]}}, {"type": "Feature", "properties": {"norad_id": 66661, "name": "SNUGLITE-III", "group": "last-30-days", "lat": 63.955451169452516, "lon": -87.81353614085015, "alt_km": 590.812295973341, "timestamp": "2025-12-27T08:36:17.076580+00:00", "meta": {"OBJECT_NAME": "SNUGLITE-III", "OBJECT_ID": "2025-274M", "EPOCH": "2025-12-26T17:50:19.973472", "MEAN_MOTION": 14.9316814, "ECCENTRICITY": 0.00134933, "INCLINATION": 97.7402, "RA_OF_ASC_NODE": 287.7409, "ARG_OF_PERICENTER": 230.0492, "MEAN_ANOMALY": 129.9543, "EPHEMERIS_TYPE": 0, "CLASSIFICATION_TYPE": "U", "NORAD_CAT_ID": 66661, "ELEMENT_SET_NO": 999, "REV_AT_EPOCH": 449, "BSTAR": 0.00029940113, "MEAN_MOTION_DOT": 3.074e-05, "MEAN_MOTION_DDOT": 0}, "tle": {"line1": "1 66661U 25274M   25360.74328673  .00003074  00000+0  29940-3 0  9991", "line2": "2 66661  97.7402 287.7409 0013493 230.0492 129.9543 14.93168140  4490"}}, "geometry": {"type": "Point", "coordinates": [-87.81353614085015, 63.955451169452516]}}, {"type": "Feature", "properties": {"norad_id": 66662, "name": "2025-274N", "group": "last-30-days", "lat": 69.8120356649563, "lon": -93.36060657030296, "alt_km": 590.0109368164394, "timestamp": "2025-12-27T08:36:17.076592+00:00", "meta": {"OBJECT_NAME": "2025-274N", "OBJECT_ID": "2025-274N", "EPOCH": "2025-12-26T19:25:11.144928", "MEAN_MOTION": 14.93225238, "ECCENTRICITY": 0.00139327, "INCLINATION": 97.7402, "RA_OF_ASC_NODE": 287.8089, "ARG_OF_PERICENTER": 229.5594, "MEAN_ANOMALY": 130.4411, "EPHEMERIS_TYPE": 0, "CLASSIFICATION_TYPE": "U", "NORAD_CAT_ID": 66662, "ELEMENT_SET_NO": 999, "REV_AT_EPOCH": 450, "BSTAR": 0.00031074981, "MEAN_MOTION_DOT": 3.197e-05, "MEAN_MOTION_DDOT": 0}, "tle": {"line1": "1 66662U 25274N   25360.80915677  .00003197  00000+0  31075-3 0  9993", "line2": "2 66662  97.7402 287.8089 0013932 229.5594 130.4411 14.93225238  4505"}}, "geometry": {"type": "Point", "coordinates": [-93.36060657030296, 69.8120356649563]}}, {"type": "Feature", "properties": {"norad_id": 66664, "name": "SOYUZ-MS 28", "group": "last-30-days", "lat": -50.64511600030365, "lon": -4.951944473798725, "alt_km": 419.78198154613347, "timestamp": "2025-12-27T08:36:17.076602+00:00", "meta": {"OBJECT_NAME": "SOYUZ-MS 28", "OBJECT_ID": "2025-275A", "EPOCH": "2025-12-26T20:34:16.427712", "MEAN_MOTION": 15.49855582, "ECCENTRICITY": 0.000323, "INCLINATION": 51.6319, "RA_OF_ASC_NODE": 72.5609, "ARG_OF_PERICENTER": 307.0606, "MEAN_ANOMALY": 53.0087, "EPHEMERIS_TYPE": 0, "CLASSIFICATION_TYPE": "U", "NORAD_CAT_ID": 66664, "ELEMENT_SET_NO": 999, "REV_AT_EPOCH": 463, "BSTAR": 0.00027092, "MEAN_MOTION_DOT": 0.00014958, "MEAN_MOTION_DDOT": 0}, "tle": {"line1": "1 66664U 25275A   25360.85713458  .00014958  00000+0  27092-3 0  9995", "line2": "2 66664  51.6319  72.5609 0003230 307.0606  53.0087 15.49855582  4632"}}, "geometry": {"type": "Point", "coordinates": [-4.951944473798725, -50.64511600030365]}}, {"type": "Feature", "properties": {"norad_id": 66666, "name": "FORMOSAT-8A", "group": "last-30-days", "lat": -48.40100239998183, "lon": 81.79942963942, "alt_km": 574.515172675865, "timestamp": "2025-12-27T08:36:17.076615+00:00", "meta": {"OBJECT_NAME": "FORMOSAT-8A", "OBJECT_ID": "2025-276A", "EPOCH": "2025-12-27T04:01:15.778272", "MEAN_MOTION": 15.00371216, "ECCENTRICITY": 0.0004136, "INCLINATION": 97.6575, "RA_OF_ASC_NODE": 72.895, "ARG_OF_PERICENTER": 180.6542, "MEAN_ANOMALY": 179.4677, "EPHEMERIS_TYPE": 0, "CLASSIFICATION_TYPE": "U", "NORAD_CAT_ID": 66666, "ELEMENT_SET_NO": 999, "REV_AT_EPOCH": 425, "BSTAR": 0.00036482, "MEAN_MOTION_DOT": 4.523e-05, "MEAN_MOTION_DDOT": 0}, "tle": {"line1": "1 66666U 25276A   25361.16754373  .00004523  00000+0  36482-3 0  9994", "line2": "2 66666  97.6575  72.8950 0004136 180.6542 179.4677 15.00371216  4250"}}, "geometry": {"type": "Point", "coordinates": [81.79942963942, -48.40100239998183]}}, {"type": "Feature", "properties": {"norad_id": 66667, "name": "PELICAN-5", "group": "last-30-days", "lat": -80.02427163272493, "lon": 120.86872198671948, "alt_km": 520.1028785188346, "timestamp": "2025-12-27T08:36:17.076625+00:00", "meta": {"OBJECT_NAME": "PELICAN-5", "OBJECT_ID": "2025-276B", "EPOCH": "2025-12-27T04:13:27.797088", "MEAN_MOTION": 15.17630338, "ECCENTRICITY": 0.0002527, "INCLINATION": 97.4406, "RA_OF_ASC_NODE": 72.7006, "ARG_OF_PERICENTER": 195.8207, "MEAN_ANOMALY": 164.2948, "EPHEMERIS_TYPE": 0, "CLASSIFICATION_TYPE": "U", "NORAD_CAT_ID": 66667, "ELEMENT_SET_NO": 999, "REV_AT_EPOCH": 431, "BSTAR": 0.00028505, "MEAN_MOTION_DOT": 5.669e-05, "MEAN_MOTION_DDOT": 0}, "tle": {"line1": "1 66667U 25276B   25361.17601617  .00005669  00000+0  28505-3 0  9997", "line2": "2 66667  97.4406  72.7006 0002527 195.8207 164.2948 15.17630338  4312"}}, "geometry": {"type": "Point", "coordinates": [120.86872198671948, -80.02427163272493]}}]}